[{"OBJECT_NAME":"STARLINK-5976","OBJECT_ID":"2023-058AC","EPOCH":"2026-03-09T22:46:45.092928","MEAN_MOTION":15.05646081,"ECCENTRICITY":0.00020388,"INCLINATION":97.604,"RA_OF_ASC_NODE":71.4425,"ARG_OF_PERICENTER":84.7743,"MEAN_ANOMALY":275.3716,"EPHEMERIS_TYPE":0,"CLASSIFICATION_TYPE":"U","NORAD_CAT_ID":56343,"ELEMENT_SET_NO":999,"REV_AT_EPOCH":15823,"BSTAR":2.4273949e-5,"MEAN_MOTION_DOT":2.89e-6,"MEAN_MOTION_DDOT":0},{"OBJECT_NAME":"CZ-6A DEB","OBJECT_ID":"2024-140ACV","EPOCH":"2026-03-09T14:12:17.134272","MEAN_MOTION":14.90958508,"ECCENTRICITY":0.0072596,"INCLINATION":89.2243,"RA_OF_ASC_NODE":297.3941,"ARG_OF_PERICENTER":114.4317,"MEAN_ANOMALY":246.4509,"EPHEMERIS_TYPE":0,"CLASSIFICATION_TYPE":"U","NORAD_CAT_ID":61829,"ELEMENT_SET_NO":999,"REV_AT_EPOCH":7741,"BSTAR":0.0037165,"MEAN_MOTION_DOT":0.00038761,"MEAN_MOTION_DDOT":0}]
